[
    {
        "Altitude(m)": 624792.7590084246,
        "Argument of Periapsis(deg)": 0.0,
        "Eccentricity": 0.0,
        "Inclination(deg)": 60.0,
        "Latitude(deg)": -59.14704796720757,
        "Longitude(deg)": 164.02623595205787,
        "Mean Anomaly(deg)": 261.8182,
        "RAAN(deg)": 10.0,
        "Satellite Name": "Test1 60",
        "Satellite Number": 60,
        "Semi-Major Axis(m)": 6980739.136638005,
        "Time(s)": 0
    },
    {
        "Altitude(m)": 624842.1517281489,
        "Argument of Periapsis(deg)": 0.00010418945913296404,
        "Eccentricity": 0.0,
        "Inclination(deg)": 60.0,
        "Latitude(deg)": -59.28913353627992,
        "Longitude(deg)": 165.15573779830984,
        "Mean Anomaly(deg)": 262.43830614546187,
        "RAAN(deg)": 9.999579950860259,
        "Satellite Name": "Test1 60",
        "Satellite Number": 60,
        "Semi-Major Axis(m)": 6980739.136638005,
        "Time(s)": 10
    },
    {
        "Altitude(m)": 624887.7201943372,
        "Argument of Periapsis(deg)": 0.0002083789182659281,
        "Eccentricity": 0.0,
        "Inclination(deg)": 60.0,
        "Latitude(deg)": -59.42060828561444,
        "Longitude(deg)": 166.2946603063099,
        "Mean Anomaly(deg)": 263.0584122909236,
        "RAAN(deg)": 9.999159901720514,
        "Satellite Name": "Test1 60",
        "Satellite Number": 60,
        "Semi-Major Axis(m)": 6980739.136638005,
        "Time(s)": 20
    },
    {
        "Altitude(m)": 624929.4464433487,
        "Argument of Periapsis(deg)": 0.00031256837739889213,
        "Eccentricity": 0.0,
        "Inclination(deg)": 60.0,
        "Latitude(deg)": -59.54133491233693,
        "Longitude(deg)": 167.44238117749705,
        "Mean Anomaly(deg)": 263.67851843638556,
        "RAAN(deg)": 9.998739852580773,
        "Satellite Name": "Test1 60",
        "Satellite Number": 60,
        "Semi-Major Axis(m)": 6980739.136638005,
        "Time(s)": 30
    },
    {
        "Altitude(m)": 624967.3140227015,
        "Argument of Periapsis(deg)": 0.0004167578365318562,
        "Eccentricity": 0.0,
        "Inclination(deg)": 60.0,
        "Latitude(deg)": -59.65118524686578,
        "Longitude(deg)": 168.59824312822792,
        "Mean Anomaly(deg)": 264.2986245818473,
        "RAAN(deg)": 9.99831980344103,
        "Satellite Name": "Test1 60",
        "Satellite Number": 60,
        "Semi-Major Axis(m)": 6980739.136638005,
        "Time(s)": 40
    },
    {
        "Altitude(m)": 625001.3079980138,
        "Argument of Periapsis(deg)": 0.0005209472956648203,
        "Eccentricity": 0.0,
        "Inclination(deg)": 60.0,
        "Latitude(deg)": -59.75004089200569,
        "Longitude(deg)": 169.7615547264365,
        "Mean Anomaly(deg)": 264.9187307273092,
        "RAAN(deg)": 9.997899754301287,
        "Satellite Name": "Test1 60",
        "Satellite Number": 60,
        "Semi-Major Axis(m)": 6980739.136638005,
        "Time(s)": 50
    },
    {
        "Altitude(m)": 625031.4149593017,
        "Argument of Periapsis(deg)": 0.0006251367547977843,
        "Eccentricity": 0.0,
        "Inclination(deg)": 60.0,
        "Latitude(deg)": -59.83779382897099,
        "Longitude(deg)": 170.93159306585994,
        "Mean Anomaly(deg)": 265.538836872771,
        "RAAN(deg)": 9.997479705161545,
        "Satellite Name": "Test1 60",
        "Satellite Number": 60,
        "Semi-Major Axis(m)": 6980739.136638005,
        "Time(s)": 60
    },
    {
        "Altitude(m)": 625057.623026628,
        "Argument of Periapsis(deg)": 0.0007293262139307483,
        "Eccentricity": 0.0,
        "Inclination(deg)": 60.0,
        "Latitude(deg)": -59.91434698350113,
        "Longitude(deg)": 172.10760675473205,
        "Mean Anomaly(deg)": 266.15894301823283,
        "RAAN(deg)": 9.9970596560218,
        "Satellite Name": "Test1 60",
        "Satellite Number": 60,
        "Semi-Major Axis(m)": 6980739.136638005,
        "Time(s)": 70
    },
    {
        "Altitude(m)": 625079.9218550888,
        "Argument of Periapsis(deg)": 0.0008335156730637124,
        "Eccentricity": 0.0,
        "Inclination(deg)": 60.0,
        "Latitude(deg)": -59.97961474543485,
        "Longitude(deg)": 173.28881769016414,
        "Mean Anomaly(deg)": 266.77904916369465,
        "RAAN(deg)": 9.99663960688206,
        "Satellite Name": "Test1 60",
        "Satellite Number": 60,
        "Semi-Major Axis(m)": 6980739.136638005,
        "Time(s)": 80
    },
    {
        "Altitude(m)": 625098.3026391929,
        "Argument of Periapsis(deg)": 0.0009377051321966765,
        "Eccentricity": 0.0,
        "Inclination(deg)": 60.0,
        "Latitude(deg)": -60.03352343547209,
        "Longitude(deg)": 174.4744246225619,
        "Mean Anomaly(deg)": 267.39915530915647,
        "RAAN(deg)": 9.996219557742315,
        "Satellite Name": "Test1 60",
        "Satellite Number": 60,
        "Semi-Major Axis(m)": 6980739.136638005,
        "Time(s)": 90
    },
    {
        "Altitude(m)": 625112.7581165574,
        "Argument of Periapsis(deg)": 0.0010418945913296407,
        "Eccentricity": 0.0,
        "Inclination(deg)": 60.0,
        "Latitude(deg)": -60.07601171332798,
        "Longitude(deg)": 175.66360697050877,
        "Mean Anomaly(deg)": 268.01926145461834,
        "RAAN(deg)": 9.995799508602573,
        "Satellite Name": "Test1 60",
        "Satellite Number": 60,
        "Semi-Major Axis(m)": 6980739.136638005,
        "Time(s)": 100
    },
    {
        "Altitude(m)": 625123.2825709651,
        "Argument of Periapsis(deg)": 0.0011460840504626045,
        "Eccentricity": 0.0,
        "Inclination(deg)": 60.0,
        "Latitude(deg)": -60.107030922094154,
        "Longitude(deg)": 176.85552734160848,
        "Mean Anomaly(deg)": 268.6393676000801,
        "RAAN(deg)": 9.99537945946283,
        "Satellite Name": "Test1 60",
        "Satellite Number": 60,
        "Semi-Major Axis(m)": 6980739.136638005,
        "Time(s)": 110
    },
    {
        "Altitude(m)": 625129.8718347697,
        "Argument of Periapsis(deg)": 0.0012502735095955685,
        "Eccentricity": 0.0,
        "Inclination(deg)": 60.0,
        "Latitude(deg)": -60.126545364357085,
        "Longitude(deg)": 178.04933574896478,
        "Mean Anomaly(deg)": 269.259473745542,
        "RAAN(deg)": 9.994959410323089,
        "Satellite Name": "Test1 60",
        "Satellite Number": 60,
        "Semi-Major Axis(m)": 6980739.136638005,
        "Time(s)": 120
    },
    {
        "Altitude(m)": 625132.5232906694,
        "Argument of Periapsis(deg)": 0.0013544629687285324,
        "Eccentricity": 0.0,
        "Inclination(deg)": 60.0,
        "Latitude(deg)": -60.134532506442035,
        "Longitude(deg)": 179.2441739705793,
        "Mean Anomaly(deg)": 269.8795798910038,
        "RAAN(deg)": 9.994539361183346,
        "Satellite Name": "Test1 60",
        "Satellite Number": 60,
        "Semi-Major Axis(m)": 6980739.136638005,
        "Time(s)": 130
    },
    {
        "Altitude(m)": 625131.2358727931,
        "Argument of Periapsis(deg)": 0.0014586524278614966,
        "Eccentricity": 0.0,
        "Inclination(deg)": 60.0,
        "Latitude(deg)": -60.130983108066104,
        "Longitude(deg)": -179.56082150405234,
        "Mean Anomaly(deg)": 270.4996860364656,
        "RAAN(deg)": 9.994119312043603,
        "Satellite Name": "Test1 60",
        "Satellite Number": 60,
        "Semi-Major Axis(m)": 6980739.136638005,
        "Time(s)": 140
    },
    {
        "Altitude(m)": 625126.0100671486,
        "Argument of Periapsis(deg)": 0.0015628418869944607,
        "Eccentricity": 0.0,
        "Inclination(deg)": 60.0,
        "Latitude(deg)": -60.11590127566844,
        "Longitude(deg)": -178.3665149593821,
        "Mean Anomaly(deg)": 271.11979218192744,
        "RAAN(deg)": 9.99369926290386,
        "Satellite Name": "Test1 60",
        "Satellite Number": 60,
        "Semi-Major Axis(m)": 6980739.136638005,
        "Time(s)": 150
    },
    {
        "Altitude(m)": 625116.8479114473,
        "Argument of Periapsis(deg)": 0.0016670313461274247,
        "Eccentricity": 0.0,
        "Inclination(deg)": 60.0,
        "Latitude(deg)": -60.08930443869781,
        "Longitude(deg)": -177.17376693031557,
        "Mean Anomaly(deg)": 271.7398983273893,
        "RAAN(deg)": 9.993279213764117,
        "Satellite Name": "Test1 60",
        "Satellite Number": 60,
        "Semi-Major Axis(m)": 6980739.136638005,
        "Time(s)": 160
    },
    {
        "Altitude(m)": 625103.7529942126,
        "Argument of Periapsis(deg)": 0.0017712208052603888,
        "Eccentricity": 0.0,
        "Inclination(deg)": 60.0,
        "Latitude(deg)": -60.05122324917357,
        "Longitude(deg)": -175.98343122901173,
        "Mean Anomaly(deg)": 272.3600044728511,
        "RAAN(deg)": 9.992859164624374,
        "Satellite Name": "Test1 60",
        "Satellite Number": 60,
        "Semi-Major Axis(m)": 6980739.136638005,
        "Time(s)": 170
    },
    {
        "Altitude(m)": 625086.7304533068,
        "Argument of Periapsis(deg)": 0.001875410264393353,
        "Eccentricity": 0.0,
        "Inclination(deg)": 60.0,
        "Latitude(deg)": -60.00170140587428,
        "Longitude(deg)": -174.7963505417733,
        "Mean Anomaly(deg)": 272.98011061831295,
        "RAAN(deg)": 9.992439115484633,
        "Satellite Name": "Test1 60",
        "Satellite Number": 60,
        "Semi-Major Axis(m)": 6980739.136638005,
        "Time(s)": 180
    },
    {
        "Altitude(m)": 625065.786973752,
        "Argument of Periapsis(deg)": 0.0019795997235263173,
        "Eccentricity": 0.0,
        "Inclination(deg)": 60.0,
        "Latitude(deg)": -59.94079540549585,
        "Longitude(deg)": -173.61335215267977,
        "Mean Anomaly(deg)": 273.60021676377477,
        "RAAN(deg)": 9.992019066344888,
        "Satellite Name": "Test1 60",
        "Satellite Number": 60,
        "Semi-Major Axis(m)": 6980739.136638005,
        "Time(s)": 190
    }
]